STARLINK-30497          
1 58011U 23153W   26067.73183320  .00002084  00000+0  87317-4 0  9990
2 58011  43.0056  72.1224 0001639 251.9212 108.1461 15.26752453134755
FLOCK 4G-15             
1 62678U 25009BX  26068.71779869  .00012647  00000+0  47575-3 0  9991
2 62678  97.4054 151.1927 0003699 316.8208  43.2740 15.27266411121358
